NORAD_CAT_ID,OBJECT_NAME,OBJECT_TYPE,EPOCH,MEAN_MOTION,ECCENTRICITY,INCLINATION,RA_OF_ASC_NODE,ARG_OF_PERICENTER,MEAN_ANOMALY,BSTAR,MEAN_MOTION_DOT,MEAN_MOTION_DDOT,TLE_LINE0,TLE_LINE1,TLE_LINE2,SEMIMAJOR_AXIS,PERIOD,APOGEE,PERIGEE,DECAYED
53261.0,STARLINK-4062,PAYLOAD,2023-10-29 14:54:01,15.08843063,0.0001277,53.2163,104.098,86.557,273.5568,7.6046e-05,9.23e-06,0.0,0 STARLINK-4062,1 53261U 22086V   23302.62084959  .00000923  00000-0  76046-4 0  9999,2 53261  53.2163 104.0980 0001277  86.5570 273.5568 15.08843063 70921,6917.871,95.437,540.619,538.853,0.0
53261.0,STARLINK-4062,PAYLOAD,2023-10-29 21:15:33,15.08849003,0.0001346,53.2163,102.9086,87.447,272.6676,0.0001534,2.155e-05,0.0,0 STARLINK-4062,1 53261U 22086V   23302.88580422  .00002155  00000-0  15340-3 0  9991,2 53261  53.2163 102.9086 0001346  87.4470 272.6676 15.08849003 70785,6917.853,95.437,540.649,538.787,0.0
53261.0,STARLINK-4062,PAYLOAD,2023-10-30 09:58:39,15.08836153,0.0001635,53.2153,100.529,90.067,270.0509,4.691e-05,4.59e-06,0.0,0 STARLINK-4062,1 53261U 22086V   23303.41573404  .00000459  00000-0  46910-4 0  9996,2 53261  53.2153 100.5290 0001635  90.0670 270.0509 15.08836153 70866,6917.892,95.438,540.888,538.626,0.0
53261.0,STARLINK-4062,PAYLOAD,2023-10-31 14:35:36,15.08838492,0.0001266,53.2165,95.1781,89.7532,270.3605,6.6379e-05,7.69e-06,0.0,0 STARLINK-4062,1 53261U 22086V   23304.60805781  .00000769  00000-0  66379-4 0  9999,2 53261  53.2165  95.1781 0001266  89.7532 270.3605 15.08838492 71224,6917.885,95.438,540.626,538.874,0.0
53261.0,STARLINK-4062,PAYLOAD,2023-10-31 19:21:45,15.08844193,0.000136,53.216,94.2849,88.3283,271.7865,9.967e-05,1.299e-05,0.0,0 STARLINK-4062,1 53261U 22086V   23304.80677232  .00001299  00000-0  99670-4 0  9998,2 53261  53.2160  94.2849 0001360  88.3283 271.7865 15.08844193 71078,6917.868,95.437,540.673,538.792,0.0
53261.0,STARLINK-4062,PAYLOAD,2023-11-01 03:18:41,15.08839562,0.0001559,53.2177,92.7962,89.5516,270.5655,-6.9009e-05,-1.386e-05,0.0,0 STARLINK-4062,1 53261U 22086V   23305.13797473 -.00001386  00000-0 -69009-4 0  9997,2 53261  53.2177  92.7962 0001559  89.5516 270.5655 15.08839562 71121,6917.882,95.438,540.825,538.668,0.0
53261.0,STARLINK-4062,PAYLOAD,2023-11-01 14:26:23,15.08836847,0.0001504,53.2177,90.7146,91.083,269.0335,6.9112e-05,8.12e-06,0.0,0 STARLINK-4062,1 53261U 22086V   23305.60166048  .00000812  00000-0  69112-4 0  9993,2 53261  53.2177  90.7146 0001504  91.0830 269.0335 15.08836847 71378,6917.89,95.438,540.795,538.715,0.0
53261.0,STARLINK-4062,PAYLOAD,2023-11-01 19:12:32,15.08844267,0.0001361,53.2174,89.8232,91.7669,268.3479,0.00010368,1.363e-05,0.0,0 STARLINK-4062,1 53261U 22086V   23305.80037449  .00001363  00000-0  10368-3 0  9997,2 53261  53.2174  89.8232 0001361  91.7669 268.3479 15.08844267 71408,6917.867,95.437,540.674,538.791,0.0
53261.0,STARLINK-4062,PAYLOAD,2023-11-02 09:31:01,15.08835392,0.00019,53.2172,87.1467,92.544,267.5769,0.00011932,1.611e-05,0.0,0 STARLINK-4062,1 53261U 22086V   23306.39654192  .00001611  00000-0  11932-3 0  9996,2 53261  53.2172  87.1467 0001900  92.5440 267.5769 15.08835392 71314,6917.894,95.438,541.074,538.445,0.0
53261.0,STARLINK-4062,PAYLOAD,2023-11-02 14:17:10,15.08841802,0.0001282,53.2166,86.2576,90.5519,269.562,0.00011921,1.61e-05,0.0,0 STARLINK-4062,1 53261U 22086V   23306.59525618  .00001610  00000-0  11921-3 0  9995,2 53261  53.2166  86.2576 0001282  90.5519 269.5620 15.08841802 71520,6917.875,95.437,540.627,538.853,0.0
53261.0,STARLINK-4062,PAYLOAD,2023-11-02 15:52:33,15.08847409,0.0001345,53.2167,85.9591,95.5089,264.6056,9.2094e-05,1.178e-05,0.0,0 STARLINK-4062,1 53261U 22086V   23306.66149332  .00001178  00000-0  92094-4 0  9998,2 53261  53.2167  85.9591 0001345  95.5089 264.6056 15.08847409 71350,6917.858,95.437,540.653,538.792,0.0
53261.0,STARLINK-4062,PAYLOAD,2023-11-03 09:21:47,15.08839298,0.0001571,53.2179,82.6872,98.3185,261.7986,0.00010283,1.349e-05,0.0,0 STARLINK-4062,1 53261U 22086V   23307.39013854  .00001349  00000-0  10283-3 0  9997,2 53261  53.2179  82.6872 0001571  98.3185 261.7986 15.08839298 71467,6917.883,95.438,540.834,538.661,0.0
53261.0,STARLINK-4062,PAYLOAD,2023-11-03 14:07:57,15.08841514,0.0001628,53.2172,81.7953,98.2053,261.9123,0.00011128,1.484e-05,0.0,0 STARLINK-4062,1 53261U 22086V   23307.58885728  .00001484  00000-0  11128-3 0  9994,2 53261  53.2172  81.7953 0001628  98.2053 261.9123 15.08841514 71678,6917.876,95.437,540.867,538.615,0.0
53261.0,STARLINK-4062,PAYLOAD,2023-11-03 18:54:06,15.08834825,0.0001609,53.2181,80.903,101.7697,258.3476,0.00026562,3.941e-05,0.0,0 STARLINK-4062,1 53261U 22086V   23307.78757740  .00003941  00000-0  26562-3 0  9996,2 53261  53.2181  80.9030 0001609 101.7697 258.3476 15.08834825 71700,6917.896,95.438,540.874,538.648,0.0
53261.0,STARLINK-4062,PAYLOAD,2023-11-04 13:58:44,15.08837254,0.0001298,53.2166,77.3363,84.0946,276.0194,2.7319e-05,1.47e-06,0.0,0 STARLINK-4062,1 53261U 22086V   23308.58246254  .00000147  00000-0  27319-4 0  9995,2 53261  53.2166  77.3363 0001298  84.0946 276.0194 15.08837254 71822,6917.889,95.438,540.652,538.856,0.0
53261.0,STARLINK-4062,PAYLOAD,2023-11-04 15:34:07,15.08840415,0.0001245,53.2165,77.039,88.2811,271.8323,5.5801e-05,6e-06,0.0,0 STARLINK-4062,1 53261U 22086V   23308.64869990  .00000600  00000-0  55801-4 0  9991,2 53261  53.2165  77.0390 0001245  88.2811 271.8323 15.08840415 71658,6917.879,95.438,540.605,538.883,0.0
53261.0,STARLINK-4062,PAYLOAD,2023-11-05 13:49:30,15.08853029,0.0001277,53.2159,72.8763,86.3522,273.7616,0.00030182,4.521e-05,0.0,0 STARLINK-4062,1 53261U 22086V   23309.57605300  .00004521  00000-0  30182-3 0  9997,2 53261  53.2159  72.8763 0001277  86.3522 273.7616 15.08853029 71977,6917.841,95.437,540.589,538.822,0.0
53261.0,STARLINK-4062,PAYLOAD,2023-11-05 15:24:53,15.08865142,0.0001266,53.2176,72.5757,90.8493,269.2644,0.0004392,6.714e-05,0.0,0 STARLINK-4062,1 53261U 22086V   23309.64228501  .00006714  00000-0  43920-3 0  9999,2 53261  53.2176  72.5757 0001266  90.8493 269.2644 15.08865142 71803,6917.804,95.436,540.544,538.793,0.0
53261.0,STARLINK-4062,PAYLOAD,2023-11-06 00:57:12,15.08862972,0.0001057,53.2165,70.7937,81.0659,279.0453,0.00041726,6.363e-05,0.0,0 STARLINK-4062,1 53261U 22086V   23310.03972468  .00006363  00000-0  41726-3 0  9994,2 53261  53.2165  70.7937 0001057  81.0659 279.0453 15.08862972 71866,6917.81,95.436,540.406,538.944,0.0
53261.0,STARLINK-4062,PAYLOAD,2023-11-06 12:04:56,15.08798552,0.0001207,53.2161,68.7131,80.0418,280.071,-0.00091282,-0.00014769,0.0,0 STARLINK-4062,1 53261U 22086V   23310.50342849 -.00014769  00000-0 -91282-3 0  9993,2 53261  53.2161  68.7131 0001207  80.0418 280.0710 15.08798552 71932,6918.007,95.44,540.707,539.037,0.0
53261.0,STARLINK-4062,PAYLOAD,2023-11-06 15:15:42,15.08798596,0.0001142,53.2162,68.1182,76.7819,283.3301,-0.00084159,-0.00013641,0.0,0 STARLINK-4062,1 53261U 22086V   23310.63591148 -.00013641  00000-0 -84159-3 0  9998,2 53261  53.2162  68.1182 0001142  76.7819 283.3301 15.08798596 72131,6918.007,95.44,540.662,539.082,0.0
53261.0,STARLINK-4062,PAYLOAD,2023-11-07 00:48:01,15.08801545,0.000131,53.2174,66.3309,79.155,280.959,-0.0006652,-0.00010848,0.0,0 STARLINK-4062,1 53261U 22086V   23311.03335483 -.00010848  00000-0 -66520-3 0  9999,2 53261  53.2174  66.3309 0001310  79.1550 280.9590 15.08801545 72010,6917.998,95.44,540.769,538.957,0.0
53261.0,STARLINK-4062,PAYLOAD,2023-11-07 11:55:44,15.08812693,6.4e-05,53.2172,64.253,82.9743,277.1322,-0.00012055,-2.204e-05,0.0,0 STARLINK-4062,1 53261U 22086V   23311.49703973 -.00002204  00000-0 -12055-3 0  9993,2 53261  53.2172  64.2530 0000640  82.9743 277.1322 15.08812693 72086,6917.964,95.439,540.272,539.386,0.0
53261.0,STARLINK-4062,PAYLOAD,2023-11-07 13:31:07,15.08817311,0.0001604,53.2173,63.952,73.716,286.4008,1.331e-05,-7.6e-07,0.0,0 STARLINK-4062,1 53261U 22086V   23311.56328148 -.00000076  00000-0  13310-4 0  9998,2 53261  53.2173  63.9520 0001604  73.7160 286.4008 15.08817311 72271,6917.95,95.439,540.924,538.705,0.0
53261.0,STARLINK-4062,PAYLOAD,2023-11-08 00:38:50,15.08829695,0.0001619,53.2183,61.8748,83.233,276.8846,0.00082707,0.00012896,0.0,0 STARLINK-4062,1 53261U 22086V   23312.02696851  .00012896  00000-0  82707-3 0  9996,2 53261  53.2183  61.8748 0001619  83.2330 276.8846 15.08829695 72161,6917.912,95.438,540.897,538.657,0.0
53261.0,STARLINK-4062,PAYLOAD,2023-11-08 11:46:31,15.08852577,0.0001248,53.2164,59.792,82.2957,277.8177,0.0010107,0.00015839,0.0,0 STARLINK-4062,1 53261U 22086V   23312.49064333  .00015839  00000-0  10107-2 0  9995,2 53261  53.2164  59.7920 0001248  82.2957 277.8177 15.08852577 72231,6917.842,95.437,540.57,538.844,0.0
53261.0,STARLINK-4062,PAYLOAD,2023-11-08 13:21:54,15.08862881,0.0001395,53.216,59.4945,82.5372,277.5779,0.0011392,0.000179,0.0,0 STARLINK-4062,1 53261U 22086V   23312.55688126  .00017900  00000-0  11392-2 0  9992,2 53261  53.2160  59.4945 0001395  82.5372 277.5779 15.08862881 72423,6917.81,95.436,540.64,538.71,0.0
53261.0,STARLINK-4062,PAYLOAD,2023-11-08 14:57:17,15.08871391,0.0001399,53.2165,59.1956,82.3451,277.7699,0.0013838,0.00021823,0.0,0 STARLINK-4062,1 53261U 22086V   23312.62311916  .00021823  00000-0  13838-2 0  9996,2 53261  53.2165  59.1956 0001399  82.3451 277.7699 15.08871391 72257,6917.784,95.436,540.617,538.682,0.0
53261.0,STARLINK-4062,PAYLOAD,2023-11-09 00:29:35,15.08860536,0.0001183,53.2181,57.4141,83.8261,276.2866,0.00098331,0.00015405,0.0,0 STARLINK-4062,1 53261U 22086V   23313.02055546  .00015405  00000-0  98331-3 0  9996,2 53261  53.2181  57.4141 0001183  83.8261 276.2866 15.08860536 72314,6917.818,95.436,540.501,538.864,0.0
53261.0,STARLINK-4062,PAYLOAD,2023-11-09 11:37:17,15.08855256,0.0001362,53.216,55.3329,86.9665,273.1483,0.0010363,0.0001625,0.0,0 STARLINK-4062,1 53261U 22086V   23313.48423405  .00016250  00000-0  10363-2 0  9996,2 53261  53.2160  55.3329 0001362  86.9665 273.1483 15.08855256 72388,6917.834,95.437,540.641,538.757,0.0
